[{"OBJECT_NAME":"O3B FM10","OBJECT_ID":"2014-083A","EPOCH":"2026-03-03T19:36:26.461152","MEAN_MOTION":5.00115218,"ECCENTRICITY":0.0002687,"INCLINATION":0.0434,"RA_OF_ASC_NODE":347.2947,"ARG_OF_PERICENTER":353.8137,"MEAN_ANOMALY":18.8747,"EPHEMERIS_TYPE":0,"CLASSIFICATION_TYPE":"U","NORAD_CAT_ID":40348,"ELEMENT_SET_NO":999,"REV_AT_EPOCH":20462,"BSTAR":0,"MEAN_MOTION_DOT":-2.8e-7,"MEAN_MOTION_DDOT":0},{"OBJECT_NAME":"O3B FM11","OBJECT_ID":"2014-083B","EPOCH":"2026-03-03T19:54:45.737856","MEAN_MOTION":5.00115587,"ECCENTRICITY":0.0003137,"INCLINATION":0.0566,"RA_OF_ASC_NODE":0.5177,"ARG_OF_PERICENTER":331.0616,"MEAN_ANOMALY":28.3969,"EPHEMERIS_TYPE":0,"CLASSIFICATION_TYPE":"U","NORAD_CAT_ID":40349,"ELEMENT_SET_NO":999,"REV_AT_EPOCH":20464,"BSTAR":0,"MEAN_MOTION_DOT":-2.8e-7,"MEAN_MOTION_DDOT":0},{"OBJECT_NAME":"O3B FM12","OBJECT_ID":"2014-083C","EPOCH":"2026-03-03T10:58:05.766816","MEAN_MOTION":5.00115945,"ECCENTRICITY":0.00026432,"INCLINATION":0.056,"RA_OF_ASC_NODE":359.7796,"ARG_OF_PERICENTER":337.6957,"MEAN_ANOMALY":22.5061,"EPHEMERIS_TYPE":0,"CLASSIFICATION_TYPE":"U","NORAD_CAT_ID":40350,"ELEMENT_SET_NO":999,"REV_AT_EPOCH":20463,"BSTAR":0,"MEAN_MOTION_DOT":-2.8e-7,"MEAN_MOTION_DDOT":0},{"OBJECT_NAME":"O3B FM9","OBJECT_ID":"2014-083D","EPOCH":"2026-03-04T02:00:15.414336","MEAN_MOTION":5.00115903,"ECCENTRICITY":0.0002736,"INCLINATION":0.0577,"RA_OF_ASC_NODE":0.7662,"ARG_OF_PERICENTER":340.8313,"MEAN_ANOMALY":18.3859,"EPHEMERIS_TYPE":0,"CLASSIFICATION_TYPE":"U","NORAD_CAT_ID":40351,"ELEMENT_SET_NO":999,"REV_AT_EPOCH":20481,"BSTAR":0,"MEAN_MOTION_DOT":-2.8e-7,"MEAN_MOTION_DDOT":0},{"OBJECT_NAME":"ASTRA 2G","OBJECT_ID":"2014-089A","EPOCH":"2026-03-04T01:39:38.681280","MEAN_MOTION":1.00270584,"ECCENTRICITY":0.0004378,"INCLINATION":0.0225,"RA_OF_ASC_NODE":7.7976,"ARG_OF_PERICENTER":20.5084,"MEAN_ANOMALY":186.6205,"EPHEMERIS_TYPE":0,"CLASSIFICATION_TYPE":"U","NORAD_CAT_ID":40364,"ELEMENT_SET_NO":999,"REV_AT_EPOCH":4091,"BSTAR":0,"MEAN_MOTION_DOT":0,"MEAN_MOTION_DDOT":0},{"OBJECT_NAME":"SES-9","OBJECT_ID":"2016-013A","EPOCH":"2026-03-04T00:51:33.159744","MEAN_MOTION":1.00271337,"ECCENTRICITY":0.0001451,"INCLINATION":0.0431,"RA_OF_ASC_NODE":306.8185,"ARG_OF_PERICENTER":87.9423,"MEAN_ANOMALY":248.198,"EPHEMERIS_TYPE":0,"CLASSIFICATION_TYPE":"U","NORAD_CAT_ID":41380,"ELEMENT_SET_NO":999,"REV_AT_EPOCH":3638,"BSTAR":0,"MEAN_MOTION_DOT":-3.58e-6,"MEAN_MOTION_DDOT":0},{"OBJECT_NAME":"SES-10","OBJECT_ID":"2017-017A","EPOCH":"2026-03-04T03:36:38.719296","MEAN_MOTION":1.00269411,"ECCENTRICITY":0.0002706,"INCLINATION":0.0207,"RA_OF_ASC_NODE":73.7163,"ARG_OF_PERICENTER":275.6575,"MEAN_ANOMALY":159.7706,"EPHEMERIS_TYPE":0,"CLASSIFICATION_TYPE":"U","NORAD_CAT_ID":42432,"ELEMENT_SET_NO":999,"REV_AT_EPOCH":3270,"BSTAR":0,"MEAN_MOTION_DOT":-2.85e-6,"MEAN_MOTION_DDOT":0},{"OBJECT_NAME":"SES-15","OBJECT_ID":"2017-026A","EPOCH":"2026-03-04T03:09:12.460608","MEAN_MOTION":1.00270724,"ECCENTRICITY":7.25e-5,"INCLINATION":0.0446,"RA_OF_ASC_NODE":309.4036,"ARG_OF_PERICENTER":34.29,"MEAN_ANOMALY":96.3137,"EPHEMERIS_TYPE":0,"CLASSIFICATION_TYPE":"U","NORAD_CAT_ID":42709,"ELEMENT_SET_NO":999,"REV_AT_EPOCH":637,"BSTAR":0,"MEAN_MOTION_DOT":4.7e-7,"MEAN_MOTION_DDOT":0},{"OBJECT_NAME":"SES-11 (ECHOSTAR 105)","OBJECT_ID":"2017-063A","EPOCH":"2026-03-04T03:16:11.791776","MEAN_MOTION":1.00272161,"ECCENTRICITY":0.0002916,"INCLINATION":0.036,"RA_OF_ASC_NODE":70.9037,"ARG_OF_PERICENTER":268.7412,"MEAN_ANOMALY":126.3389,"EPHEMERIS_TYPE":0,"CLASSIFICATION_TYPE":"U","NORAD_CAT_ID":42967,"ELEMENT_SET_NO":999,"REV_AT_EPOCH":3067,"BSTAR":0,"MEAN_MOTION_DOT":-1.02e-6,"MEAN_MOTION_DDOT":0},{"OBJECT_NAME":"SES-14","OBJECT_ID":"2018-012B","EPOCH":"2026-03-04T01:55:38.590464","MEAN_MOTION":1.00271475,"ECCENTRICITY":9.77e-5,"INCLINATION":0.0145,"RA_OF_ASC_NODE":71.8974,"ARG_OF_PERICENTER":269.6847,"MEAN_ANOMALY":161.6531,"EPHEMERIS_TYPE":0,"CLASSIFICATION_TYPE":"U","NORAD_CAT_ID":43175,"ELEMENT_SET_NO":999,"REV_AT_EPOCH":597,"BSTAR":0,"MEAN_MOTION_DOT":-2.91e-6,"MEAN_MOTION_DDOT":0},{"OBJECT_NAME":"O3B FM15","OBJECT_ID":"2018-024A","EPOCH":"2026-03-03T22:48:33.166368","MEAN_MOTION":5.00115661,"ECCENTRICITY":0.0002703,"INCLINATION":0.0484,"RA_OF_ASC_NODE":0.7666,"ARG_OF_PERICENTER":337.689,"MEAN_ANOMALY":21.5262,"EPHEMERIS_TYPE":0,"CLASSIFICATION_TYPE":"U","NORAD_CAT_ID":43231,"ELEMENT_SET_NO":999,"REV_AT_EPOCH":14576,"BSTAR":0,"MEAN_MOTION_DOT":-2.8e-7,"MEAN_MOTION_DDOT":0},{"OBJECT_NAME":"O3B FM16","OBJECT_ID":"2018-024B","EPOCH":"2026-02-28T19:18:29.707200","MEAN_MOTION":5.00115846,"ECCENTRICITY":0.0002785,"INCLINATION":0.0446,"RA_OF_ASC_NODE":2.3185,"ARG_OF_PERICENTER":333.1821,"MEAN_ANOMALY":24.4786,"EPHEMERIS_TYPE":0,"CLASSIFICATION_TYPE":"U","NORAD_CAT_ID":43232,"ELEMENT_SET_NO":999,"REV_AT_EPOCH":14552,"BSTAR":0,"MEAN_MOTION_DOT":-2.8e-7,"MEAN_MOTION_DDOT":0},{"OBJECT_NAME":"O3B FM14","OBJECT_ID":"2018-024C","EPOCH":"2026-03-04T01:02:39.479136","MEAN_MOTION":5.00115627,"ECCENTRICITY":0.0002847,"INCLINATION":0.0433,"RA_OF_ASC_NODE":1.5385,"ARG_OF_PERICENTER":342.0948,"MEAN_ANOMALY":16.3508,"EPHEMERIS_TYPE":0,"CLASSIFICATION_TYPE":"U","NORAD_CAT_ID":43233,"ELEMENT_SET_NO":999,"REV_AT_EPOCH":14569,"BSTAR":0,"MEAN_MOTION_DOT":-2.8e-7,"MEAN_MOTION_DDOT":0},{"OBJECT_NAME":"O3B FM13","OBJECT_ID":"2018-024D","EPOCH":"2026-03-03T02:38:16.342368","MEAN_MOTION":5.00115687,"ECCENTRICITY":0.00042952,"INCLINATION":0.0485,"RA_OF_ASC_NODE":331.6373,"ARG_OF_PERICENTER":331.6147,"MEAN_ANOMALY":56.6997,"EPHEMERIS_TYPE":0,"CLASSIFICATION_TYPE":"U","NORAD_CAT_ID":43234,"ELEMENT_SET_NO":999,"REV_AT_EPOCH":14574,"BSTAR":0,"MEAN_MOTION_DOT":-2.8e-7,"MEAN_MOTION_DDOT":0},{"OBJECT_NAME":"SES-12","OBJECT_ID":"2018-049A","EPOCH":"2026-03-04T03:59:38.679360","MEAN_MOTION":1.00268956,"ECCENTRICITY":0.0002089,"INCLINATION":0.0188,"RA_OF_ASC_NODE":120.267,"ARG_OF_PERICENTER":184.2983,"MEAN_ANOMALY":12.2805,"EPHEMERIS_TYPE":0,"CLASSIFICATION_TYPE":"U","NORAD_CAT_ID":43488,"ELEMENT_SET_NO":999,"REV_AT_EPOCH":2836,"BSTAR":0,"MEAN_MOTION_DOT":0,"MEAN_MOTION_DDOT":0},{"OBJECT_NAME":"O3B FM20","OBJECT_ID":"2019-020A","EPOCH":"2026-03-02T20:53:04.314912","MEAN_MOTION":5.00115471,"ECCENTRICITY":0.0002817,"INCLINATION":0.0516,"RA_OF_ASC_NODE":359.6601,"ARG_OF_PERICENTER":330.2863,"MEAN_ANOMALY":30.0302,"EPHEMERIS_TYPE":0,"CLASSIFICATION_TYPE":"U","NORAD_CAT_ID":44112,"ELEMENT_SET_NO":999,"REV_AT_EPOCH":12625,"BSTAR":0,"MEAN_MOTION_DOT":-2.9e-7,"MEAN_MOTION_DDOT":0},{"OBJECT_NAME":"O3B FM19","OBJECT_ID":"2019-020B","EPOCH":"2026-02-27T21:34:30.034272","MEAN_MOTION":5.00116325,"ECCENTRICITY":0.0004795,"INCLINATION":0.0602,"RA_OF_ASC_NODE":347.5601,"ARG_OF_PERICENTER":353.9797,"MEAN_ANOMALY":18.4356,"EPHEMERIS_TYPE":0,"CLASSIFICATION_TYPE":"U","NORAD_CAT_ID":44113,"ELEMENT_SET_NO":999,"REV_AT_EPOCH":12597,"BSTAR":0,"MEAN_MOTION_DOT":-2.7e-7,"MEAN_MOTION_DDOT":0}]
